{
  "type": "FeatureCollection",
  "features": [
    {
      "type": "Feature",
      "properties": {
        "norad_id": 28051,
        "name": "IRS-P6 (RESOURCESAT-1)",
        "group": "resource",
        "lat": -64.35511914964903,
        "lon": -157.26901386799815,
        "alt_km": 791.1082507845977,
        "timestamp": "2025-12-26T11:25:44.875911+00:00",
        "meta_object_name": "IRS-P6 (RESOURCESAT-1)",
        "meta_object_id": "2003-046A",
        "meta_epoch": "2025-12-26T04:01:45.099840",
        "meta_mean_motion": 14.36080525,
        "meta_eccentricity": 0.0064959,
        "meta_inclination": 98.2158,
        "meta_ra_of_asc_node": 39.9512,
        "meta_arg_of_pericenter": 140.6147,
        "meta_mean_anomaly": 311.1271,
        "meta_ephemeris_type": 0,
        "meta_classification_type": "U",
        "meta_norad_cat_id": 28051,
        "meta_element_set_no": 999,
        "meta_rev_at_epoch": 15569,
        "meta_bstar": 6.4824e-05,
        "meta_mean_motion_dot": 1.53e-06,
        "meta_mean_motion_ddot": 0,
        "tle_line1": "1 28051U 03046A   25360.16788310  .00000153  00000+0  64824-4 0  9995",
        "tle_line2": "2 28051  98.2158  39.9512 0064959 140.6147 311.1271 14.36080525155692"
      },
      "geometry": {
        "type": "Point",
        "coordinates": [
          -157.26901386799815,
          -64.35511914964903
        ]
      }
    },
    {
      "type": "Feature",
      "properties": {
        "norad_id": 28220,
        "name": "SHIYAN-1 (SY-1)",
        "group": "resource",
        "lat": -6.997251181395752,
        "lon": 63.80180666639758,
        "alt_km": 483.97045180756413,
        "timestamp": "2025-12-26T11:25:44.875922+00:00",
        "meta_object_name": "SHIYAN-1 (SY-1)",
        "meta_object_id": "2004-012A",
        "meta_epoch": "2025-12-26T02:01:58.498176",
        "meta_mean_motion": 15.28486878,
        "meta_eccentricity": 0.0005162,
        "meta_inclination": 97.8911,
        "meta_ra_of_asc_node": 62.4117,
        "meta_arg_of_pericenter": 269.0234,
        "meta_mean_anomaly": 91.0413,
        "meta_ephemeris_type": 0,
        "meta_classification_type": "U",
        "meta_norad_cat_id": 28220,
        "meta_element_set_no": 999,
        "meta_rev_at_epoch": 18460,
        "meta_bstar": 0.00046656,
        "meta_mean_motion_dot": 0.00012867,
        "meta_mean_motion_ddot": 0,
        "tle_line1": "1 28220U 04012A   25360.08470484  .00012867  00000+0  46656-3 0  9995",
        "tle_line2": "2 28220  97.8911  62.4117 0005162 269.0234  91.0413 15.28486878184606"
      },
      "geometry": {
        "type": "Point",
        "coordinates": [
          63.80180666639758,
          -6.997251181395752
        ]
      }
    },
    {
      "type": "Feature",
      "properties": {
        "norad_id": 28376,
        "name": "AURA",
        "group": "resource",
        "lat": -58.358889972926946,
        "lon": -35.492958271382975,
        "alt_km": 697.9947154591555,
        "timestamp": "2025-12-26T11:25:44.875931+00:00",
        "meta_object_name": "AURA",
        "meta_object_id": "2004-026A",
        "meta_epoch": "2025-12-26T03:28:54.881760",
        "meta_mean_motion": 14.6097635,
        "meta_eccentricity": 0.0001445,
        "meta_inclination": 98.3204,
        "meta_ra_of_asc_node": 310.4354,
        "meta_arg_of_pericenter": 90.5232,
        "meta_mean_anomaly": 269.6134,
        "meta_ephemeris_type": 0,
        "meta_classification_type": "U",
        "meta_norad_cat_id": 28376,
        "meta_element_set_no": 999,
        "meta_rev_at_epoch": 14094,
        "meta_bstar": 0.0002242,
        "meta_mean_motion_dot": 1.051e-05,
        "meta_mean_motion_ddot": 0,
        "tle_line1": "1 28376U 04026A   25360.14507965  .00001051  00000+0  22420-3 0  9990",
        "tle_line2": "2 28376  98.3204 310.4354 0001445  90.5232 269.6134 14.60976350140949"
      },
      "geometry": {
        "type": "Point",
        "coordinates": [
          -35.492958271382975,
          -58.358889972926946
        ]
      }
    },
    {
      "type": "Feature",
      "properties": {
        "norad_id": 28649,
        "name": "IRS-P5 (CARTOSAT-1)",
        "group": "resource",
        "lat": 11.939642528877116,
        "lon": -152.11344761915552,
        "alt_km": 597.9585744007027,
        "timestamp": "2025-12-26T11:25:44.875941+00:00",
        "meta_object_name": "IRS-P5 (CARTOSAT-1)",
        "meta_object_id": "2005-017A",
        "meta_epoch": "2025-12-26T01:00:39.645792",
        "meta_mean_motion": 14.90447527,
        "meta_eccentricity": 4.71e-05,
        "meta_inclination": 97.5483,
        "meta_ra_of_asc_node": 25.865,
        "meta_arg_of_pericenter": 68.6931,
        "meta_mean_anomaly": 291.4338,
        "meta_ephemeris_type": 0,
        "meta_classification_type": "U",
        "meta_norad_cat_id": 28649,
        "meta_element_set_no": 999,
        "meta_rev_at_epoch": 11802,
        "meta_bstar": 0.00016417,
        "meta_mean_motion_dot": 1.548e-05,
        "meta_mean_motion_ddot": 0,
        "tle_line1": "1 28649U 05017A   25360.04212553  .00001548  00000+0  16417-3 0  9999",
        "tle_line2": "2 28649  97.5483  25.8650 0000471  68.6931 291.4338 14.90447527118023"
      },
      "geometry": {
        "type": "Point",
        "coordinates": [
          -152.11344761915552,
          11.939642528877116
        ]
      }
    },
    {
      "type": "Feature",
      "properties": {
        "norad_id": 28893,
        "name": "SINAH 1",
        "group": "resource",
        "lat": -63.36648983955682,
        "lon": 145.9110606933125,
        "alt_km": 698.0810280147161,
        "timestamp": "2025-12-26T11:25:44.875951+00:00",
        "meta_object_name": "SINAH 1",
        "meta_object_id": "2005-043D",
        "meta_epoch": "2025-12-26T03:31:21.220896",
        "meta_mean_motion": 14.63976138,
        "meta_eccentricity": 0.0015732,
        "meta_inclination": 98.261,
        "meta_ra_of_asc_node": 128.7405,
        "meta_arg_of_pericenter": 97.9355,
        "meta_mean_anomaly": 262.3633,
        "meta_ephemeris_type": 0,
        "meta_classification_type": "U",
        "meta_norad_cat_id": 28893,
        "meta_element_set_no": 999,
        "meta_rev_at_epoch": 7520,
        "meta_bstar": 9.5188e-05,
        "meta_mean_motion_dot": 4.5e-06,
        "meta_mean_motion_ddot": 0,
        "tle_line1": "1 28893U 05043D   25360.14677339  .00000450  00000+0  95188-4 0  9991",
        "tle_line2": "2 28893  98.2610 128.7405 0015732  97.9355 262.3633 14.63976138 75208"
      },
      "geometry": {
        "type": "Point",
        "coordinates": [
          145.9110606933125,
          -63.36648983955682
        ]
      }
    },
    {
      "type": "Feature",
      "properties": {
        "norad_id": 29079,
        "name": "EROS B",
        "group": "resource",
        "lat": 17.733620487706972,
        "lon": -59.88770121907221,
        "alt_km": 353.8820376578342,
        "timestamp": "2025-12-26T11:25:44.875960+00:00",
        "meta_object_name": "EROS B",
        "meta_object_id": "2006-014A",
        "meta_epoch": "2025-12-26T04:38:04.460352",
        "meta_mean_motion": 15.72780029,
        "meta_eccentricity": 0.0004634,
        "meta_inclination": 97.3451,
        "meta_ra_of_asc_node": 117.4496,
        "meta_arg_of_pericenter": 312.044,
        "meta_mean_anomaly": 48.0429,
        "meta_ephemeris_type": 0,
        "meta_classification_type": "U",
        "meta_norad_cat_id": 29079,
        "meta_element_set_no": 999,
        "meta_rev_at_epoch": 9291,
        "meta_bstar": 0.0015606,
        "meta_mean_motion_dot": 0.00215341,
        "meta_mean_motion_ddot": 0,
        "tle_line1": "1 29079U 06014A   25360.19310718  .00215341  00000+0  15606-2 0  9999",
        "tle_line2": "2 29079  97.3451 117.4496 0004634 312.0440  48.0429 15.72780029 92910"
      },
      "geometry": {
        "type": "Point",
        "coordinates": [
          -59.88770121907221,
          17.733620487706972
        ]
      }
    },
    {
      "type": "Feature",
      "properties": {
        "norad_id": 29228,
        "name": "RESURS-DK 1",
        "group": "resource",
        "lat": 64.78741840223353,
        "lon": -164.59065053874838,
        "alt_km": 526.1193797071792,
        "timestamp": "2025-12-26T11:25:44.875970+00:00",
        "meta_object_name": "RESURS-DK 1",
        "meta_object_id": "2006-021A",
        "meta_epoch": "2025-12-25T12:44:18.731040",
        "meta_mean_motion": 15.12230969,
        "meta_eccentricity": 0.0006922,
        "meta_inclination": 69.9336,
        "meta_ra_of_asc_node": 68.7803,
        "meta_arg_of_pericenter": 247.3291,
        "meta_mean_anomaly": 112.7143,
        "meta_ephemeris_type": 0,
        "meta_classification_type": "U",
        "meta_norad_cat_id": 29228,
        "meta_element_set_no": 999,
        "meta_rev_at_epoch": 7631,
        "meta_bstar": 0.00018237,
        "meta_mean_motion_dot": 3.053e-05,
        "meta_mean_motion_ddot": 0,
        "tle_line1": "1 29228U 06021A   25359.53077235  .00003053  00000+0  18237-3 0  9992",
        "tle_line2": "2 29228  69.9336  68.7803 0006922 247.3291 112.7143 15.12230969 76314"
      },
      "geometry": {
        "type": "Point",
        "coordinates": [
          -164.59065053874838,
          64.78741840223353
        ]
      }
    }
  ]
}